{
    "links": {
        "self": "http://www.neowsapp.com/rest/v1/neo/3789411?api_key=iIulBulltgU6a56xZRHN4H3l9WmuAYTsLGpBGhQ2"
    },
    "id": "3789411",
    "neo_reference_id": "3789411",
    "name": "(2017 VP14)",
    "designation": "2017 VP14",
    "nasa_jpl_url": "http://ssd.jpl.nasa.gov/sbdb.cgi?sstr=3789411",
    "absolute_magnitude_h": 23.7,
    "estimated_diameter": {
        "kilometers": {
            "estimated_diameter_min": 0.0483676488,
            "estimated_diameter_max": 0.1081533507
        },
        "meters": {
            "estimated_diameter_min": 48.3676488219,
            "estimated_diameter_max": 108.1533506775
        },
        "miles": {
            "estimated_diameter_min": 0.0300542543,
            "estimated_diameter_max": 0.0672033557
        },
        "feet": {
            "estimated_diameter_min": 158.6865169607,
            "estimated_diameter_max": 354.8338390368
        }
    },
    "is_potentially_hazardous_asteroid": false,
    "close_approach_data": [
        {
            "close_approach_date": "2017-12-29",
            "close_approach_date_full": "2017-Dec-29 05:00",
            "epoch_date_close_approach": 1514523600000,
            "relative_velocity": {
                "kilometers_per_second": "10.4849297214",
                "kilometers_per_hour": "37745.7469968643",
                "miles_per_hour": "23453.7392936905"
            },
            "miss_distance": {
                "astronomical": "0.1066085696",
                "lunar": "41.4707335744",
                "kilometers": "15948414.935906752",
                "miles": "9909885.5136750976"
            },
            "orbiting_body": "Earth"
        }
    ],
    "orbital_data": {
        "orbit_id": "2",
        "orbit_determination_date": "2017-11-18 06:21:36",
        "first_observation_date": "2017-11-13",
        "last_observation_date": "2017-11-17",
        "data_arc_in_days": 4,
        "observations_used": 12,
        "orbit_uncertainty": "9",
        "minimum_orbit_intersection": ".0298464",
        "jupiter_tisserand_invariant": "3.383",
        "epoch_osculation": "2458072.5",
        "eccentricity": ".6110002655595497",
        "semi_major_axis": "2.210254906106828",
        "inclination": "4.285951997737694",
        "ascending_node_longitude": "23.48723750510601",
        "orbital_period": "1200.223074063556",
        "perihelion_distance": ".8597885715212585",
        "perihelion_argument": "105.4983107196993",
        "aphelion_distance": "3.560721240692397",
        "perihelion_time": "2458140.048225731663",
        "mean_anomaly": "339.7392986446526",
        "mean_motion": ".2999442418492754",
        "equinox": "J2000",
        "orbit_class": {
            "orbit_class_type": "APO",
            "orbit_class_description": "Near-Earth asteroid orbits which cross the Earth’s orbit similar to that of 1862 Apollo",
            "orbit_class_range": "a (semi-major axis) > 1.0 AU; q (perihelion) < 1.017 AU"
        }
    },
    "is_sentry_object": false
}